ALSAT 1                 
1 27559U 02054A   08238.05091711  .00000023  00000-0  13378-4 0  5418
2 27559  97.9840 116.6985 0009670 293.1853  66.8333 14.62975874306399
NIGERIASAT 1            
1 27941U 03042C   08238.13651200 -.00000056  00000-0 -20092-5 0  6359
2 27941  97.9843 117.0682 0011446 357.4289   2.6853 14.62964793262256
UK-DMC                  
1 27942U 03042D   08238.17018149  .00000007  00000-0  10361-4 0  6242
2 27942  97.9836 116.8918 0011403   5.5544 354.5779 14.62976010262257
BILSAT 1                
1 27943U 03042E   08238.06284002  .00000005  00000-0  98586-5 0  4662
2 27943  97.9838 116.6426 0011765 355.3144   4.7948 14.62880422262236
BEIJING 1               
1 28890U 05043A   08238.09549899  .00000007  00000-0  11028-4 0  3473
2 28890  98.0833 130.5301 0015079 187.9785 172.1183 14.60035911150706
